*******************************************************************************
JPL/HORIZONS                 416400 (2003 UZ117)           2020-Dec-02 15:41:14
Rec #:  416400 (+COV) Soln.date: 2020-Nov-12_13:02:05    # obs: 420 (2002-2020)
 
IAU76/J2000 helio. ecliptic osc. elements (au, days, deg., period=Julian yrs):
 
  EPOCH=  2457325.5 ! 2015-Oct-30.00 (TDB)         Residual RMS= .1208
   EC= .1341741803196408   QR= 38.31969819647956   TP= 2463890.6575263776
   OM= 204.6960446192733   W=  247.248271910018    IN= 27.45791359829396
   A= 44.25797582546824    MA= 338.0233291248622   ADIST= 50.19625345445692
   PER= 294.43914          N= .00334747            ANGMOM= .113405041
   DAN= 45.83986           DDN= 41.31725           L= 89.4001744
   B= -25.1645064          MOID= 37.43090057       TP= 2033-Oct-20.1575263776
 
Asteroid physical parameters (km, seconds, rotational period in hours):
   GM= n.a.                RAD= n.a.               ROTPER= 10.61
   H= 5.1                  G= .150                 B-V= n.a.
                           ALBEDO= n.a.            STYP= n.a.
 
ASTEROID comments: 
1: soln ref.= JPL#11, OCC=2
2: source=ORB
*******************************************************************************
 
 
*******************************************************************************
Ephemeris / WWW_USER Wed Dec  2 15:41:14 2020 Pasadena, USA      / Horizons
*******************************************************************************
Target body name: 416400 (2003 UZ117)             {source: JPL#11}
Center body name: Solar System Barycenter (0)     {source: DE431}
Center-site name: BODY CENTER
*******************************************************************************
Start time      : A.D. 2000-Jan-01 00:00:00.0000 TDB
Stop  time      : A.D. 2000-Jan-01 00:00:00.5000 TDB
Step-size       : 0 steps
*******************************************************************************
Center geodetic : 0.00000000,0.00000000,0.0000000 {E-lon(deg),Lat(deg),Alt(km)}
Center cylindric: 0.00000000,0.00000000,0.0000000 {E-lon(deg),Dxy(km),Dz(km)}
Center radii    : (undefined)                                                  
Small perturbers: Yes                             {source: SB431-N16}
Output units    : AU-D
Output type     : GEOMETRIC cartesian states
Output format   : 2x (pos. & vel. w/uncertainties: XYZ)
Reference frame : Ecliptic of J2000.0
*******************************************************************************
Initial IAU76/J2000 heliocentric ecliptic osculating elements (au, days, deg.):
  EPOCH=  2457325.5 ! 2015-Oct-30.00 (TDB)         Residual RMS= .1208         
   EC= .1341741803196408   QR= 38.31969819647956   TP= 2463890.6575263776      
   OM= 204.6960446192733   W=  247.248271910018    IN= 27.45791359829396       
  Equivalent ICRF heliocentric equatorial cartesian coordinates (au, au/d):
   X= 1.868467254695280E+01  Y= 3.400653797005756E+01  Z= 2.581851803279402E+00
  VX=-2.576040352309746E-03 VY= 1.264221565127842E-03 VZ=-5.464612895714443E-04
Asteroid physical parameters (km, seconds, rotational period in hours):        
   GM= n.a.                RAD= n.a.               ROTPER= 10.61               
   H= 5.1                  G= .150                 B-V= n.a.                   
                           ALBEDO= n.a.            STYP= n.a.                  
*******************************************************************************
            JDTDB,            Calendar Date (TDB),                      X,                      Y,                      Z,                     VX,                     VY,                     VZ,             X_s,             Y_s,             Z_s,            VX_s,            VY_s,            VZ_s,
********************************************************************************************************************************************************************************************************************************************************************************************************
$$SOE
2451544.500000000, A.D. 2000-Jan-01 00:00:00.0000,  3.166659841593118E+01,  2.428550758078162E+01, -4.606357829098204E+00, -1.866588508363532E-03,  1.748866408602661E-03, -1.228375401664573E-03,  1.55629630E-04,  1.47623561E-04,  3.98936618E-05,  1.92382700E-08,  1.55191660E-08,  5.74531091E-09,
$$EOE
********************************************************************************************************************************************************************************************************************************************************************************************************
Coordinate system description:

  Ecliptic at the standard reference epoch

    Reference epoch: J2000.0
    X-Y plane: adopted Earth orbital plane at the reference epoch
               Note: obliquity of 84381.448 arcseconds (IAU76) wrt ICRF equator
    X-axis   : ICRF
    Z-axis   : perpendicular to the X-Y plane in the directional (+ or -) sense
               of Earth's north pole at the reference epoch.

  Symbol meaning [1 au= 149597870.700 km, 1 day= 86400.0 s]:

    JDTDB    Julian Day Number, Barycentric Dynamical Time
      X      X-component of position vector (au)
      Y      Y-component of position vector (au)
      Z      Z-component of position vector (au)
      VX     X-component of velocity vector (au/day)                           
      VY     Y-component of velocity vector (au/day)                           
      VZ     Z-component of velocity vector (au/day)                           
      X_s    X-direction 1-sigma position uncertainty (au)                     
      Y_s    Y-direction 1-sigma position uncertainty (au)                     
      Z_s    Z-direction 1-sigma position uncertainty (au)                     
      VX_s   X-direction 1-sigma velocity uncertainty (au/day)                 
      VY_s   Y-direction 1-sigma velocity uncertainty (au/day)                 
      VZ_s   Z-direction 1-sigma velocity uncertainty (au/day)                 

Geometric states/elements have no aberrations applied.


 Computations by ...
     Solar System Dynamics Group, Horizons On-Line Ephemeris System
     4800 Oak Grove Drive, Jet Propulsion Laboratory
     Pasadena, CA  91109   USA
     Information  : https://ssd.jpl.nasa.gov/
     Documentation: https://ssd.jpl.nasa.gov/?horizons_doc
     Connect      : https://ssd.jpl.nasa.gov/?horizons (browser)
                    telnet ssd.jpl.nasa.gov 6775       (command-line)
                    e-mail command interface available
                    Script and CGI interfaces available
     Author       : Jon.D.Giorgini@jpl.nasa.gov
*******************************************************************************
